{"type": "FeatureCollection", "features": [ {"type": "Feature", "properties": {"norad_id": 29808, "name": "FENGYUN 1C DEB", "group": "fengyun-1c-debris", "lat": -40.98194870779095, "lon": 76.76451947610678, "alt_km": 513.7613993329078, "timestamp": "2025-12-12T09:49:09.002849+00:00", "meta": {"OBJECT_NAME": "FENGYUN 1C DEB", "OBJECT_ID": "1999-025DA", "EPOCH": "2025-12-11T08:08:48.207840", "MEAN_MOTION": 15.21007141, "ECCENTRICITY": 0.0018649, "INCLINATION": 99.0138, "RA_OF_ASC_NODE": 263.4116, "ARG_OF_PERICENTER": 94.5983, "MEAN_ANOMALY": 30.6551, "EPHEMERIS_TYPE": 0, "CLASSIFICATION_TYPE": "U", "NORAD_CAT_ID": 29808, "ELEMENT_SET_NO": 999, "REV_AT_EPOCH": 98204, "BSTAR": 0.026742101, "MEAN_MOTION_DOT": 0.00640421, "MEAN_MOTION_DDOT": 0}, "tle": {"line1": "1 29808U 99025DA  25345.33944685  .00640421  00000+0  26742-1 0  9991", "line2": "2 29808  99.0138 263.4116 0018649  94.5983  30.6551 15.21007141982043"}}, "geometry": {"type": "Point", "coordinates": [76.76451947610678, -40.98194870779095]}}, {"type": "Feature", "properties": {"norad_id": 29809, "name": "FENGYUN 1C DEB", "group": "fengyun-1c-debris", "lat": -47.700705287284045, "lon": 120.06418211220631, "alt_km": 787.4810626901608, "timestamp": "2025-12-12T09:49:09.002860+00:00", "meta": {"OBJECT_NAME": "FENGYUN 1C DEB", "OBJECT_ID": "1999-025DB", "EPOCH": "2025-12-11T21:23:17.608128", "MEAN_MOTION": 14.46587611, "ECCENTRICITY": 0.0116177, "INCLINATION": 98.8601, "RA_OF_ASC_NODE": 309.3936, "ARG_OF_PERICENTER": 352.5548, "MEAN_ANOMALY": 61.1367, "EPHEMERIS_TYPE": 0, "CLASSIFICATION_TYPE": "U", "NORAD_CAT_ID": 29809, "ELEMENT_SET_NO": 999, "REV_AT_EPOCH": 99455, "BSTAR": 0.0006214, "MEAN_MOTION_DOT": 2.384e-05, "MEAN_MOTION_DDOT": 0}, "tle": {"line1": "1 29809U 99025DB  25345.89117602  .00002384  00000+0  62140-3 0  9998", "line2": "2 29809  98.8601 309.3936 0116177 352.5548  61.1367 14.46587611994559"}}, "geometry": {"type": "Point", "coordinates": [120.06418211220631, -47.700705287284045]}}, {"type": "Feature", "properties": {"norad_id": 29810, "name": "FENGYUN 1C DEB", "group": "fengyun-1c-debris", "lat": -80.34073190346831, "lon": 95.56282948519679, "alt_km": 815.7166859023364, "timestamp": "2025-12-12T09:49:09.002870+00:00", "meta": {"OBJECT_NAME": "FENGYUN 1C DEB", "OBJECT_ID": "1999-025DC", "EPOCH": "2025-12-12T01:57:10.818144", "MEAN_MOTION": 14.2912861, "ECCENTRICITY": 0.0066965, "INCLINATION": 99.2067, "RA_OF_ASC_NODE": 22.8677, "ARG_OF_PERICENTER": 20.8817, "MEAN_ANOMALY": 7.456, "EPHEMERIS_TYPE": 0, "CLASSIFICATION_TYPE": "U", "NORAD_CAT_ID": 29810, "ELEMENT_SET_NO": 999, "REV_AT_EPOCH": 98368, "BSTAR": 0.00039447, "MEAN_MOTION_DOT": 9.76e-06, "MEAN_MOTION_DDOT": 0}, "tle": {"line1": "1 29810U 99025DC  25346.08137521  .00000976  00000+0  39447-3 0  9993", "line2": "2 29810  99.2067  22.8677 0066965  20.8817   7.4560 14.29128610983685"}}, "geometry": {"type": "Point", "coordinates": [95.56282948519679, -80.34073190346831]}}, {"type": "Feature", "properties": {"norad_id": 29812, "name": "FENGYUN 1C DEB", "group": "fengyun-1c-debris", "lat": -3.375888110246763, "lon": -5.223495536848272, "alt_km": 976.1329526421005, "timestamp": "2025-12-12T09:49:09.002881+00:00", "meta": {"OBJECT_NAME": "FENGYUN 1C DEB", "OBJECT_ID": "1999-025DE", "EPOCH": "2025-12-07T01:05:47.261760", "MEAN_MOTION": 14.01959129, "ECCENTRICITY": 0.01444592, "INCLINATION": 98.3498, "RA_OF_ASC_NODE": 170.3581, "ARG_OF_PERICENTER": 343.8427, "MEAN_ANOMALY": 145.6696, "EPHEMERIS_TYPE": 0, "CLASSIFICATION_TYPE": "U", "NORAD_CAT_ID": 29812, "ELEMENT_SET_NO": 999, "REV_AT_EPOCH": 96092, "BSTAR": 0.0016935691, "MEAN_MOTION_DOT": 2.789e-05, "MEAN_MOTION_DDOT": 0}, "tle": {"line1": "1 29812U 99025DE  25341.04568590  .00002789  00000+0  16936-2 0  9991", "line2": "2 29812  98.3498 170.3581 0144459 343.8427 145.6696 14.01959129960922"}}, "geometry": {"type": "Point", "coordinates": [-5.223495536848272, -3.375888110246763]}}, {"type": "Feature", "properties": {"norad_id": 29813, "name": "FENGYUN 1C DEB", "group": "fengyun-1c-debris", "lat": 14.739124694430718, "lon": -171.40465660847264, "alt_km": 857.5303302560924, "timestamp": "2025-12-12T09:49:09.002892+00:00", "meta": {"OBJECT_NAME": "FENGYUN 1C DEB", "OBJECT_ID": "1999-025DF", "EPOCH": "2025-12-12T00:47:02.253408", "MEAN_MOTION": 14.09450815, "ECCENTRICITY": 0.0011807, "INCLINATION": 98.7276, "RA_OF_ASC_NODE": 5.9145, "ARG_OF_PERICENTER": 224.1733, "MEAN_ANOMALY": 191.7782, "EPHEMERIS_TYPE": 0, "CLASSIFICATION_TYPE": "U", "NORAD_CAT_ID": 29813, "ELEMENT_SET_NO": 999, "REV_AT_EPOCH": 97250, "BSTAR": 5.9198e-05, "MEAN_MOTION_DOT": 6.1e-07, "MEAN_MOTION_DDOT": 0}, "tle": {"line1": "1 29813U 99025DF  25346.03266497  .00000061  00000+0  59198-4 0  9997", "line2": "2 29813  98.7276   5.9145 0011807 224.1733 191.7782 14.09450815972502"}}, "geometry": {"type": "Point", "coordinates": [-171.40465660847264, 14.739124694430718]}}, {"type": "Feature", "properties": {"norad_id": 29815, "name": "FENGYUN 1C DEB", "group": "fengyun-1c-debris", "lat": 73.75031032169382, "lon": -34.14254213066943, "alt_km": 608.1517433975469, "timestamp": "2025-12-12T09:49:09.002902+00:00", "meta": {"OBJECT_NAME": "FENGYUN 1C DEB", "OBJECT_ID": "1999-025DH", "EPOCH": "2025-12-11T23:37:41.875680", "MEAN_MOTION": 14.63706017, "ECCENTRICITY": 0.0183948, "INCLINATION": 98.0565, "RA_OF_ASC_NODE": 354.5173, "ARG_OF_PERICENTER": 137.5735, "MEAN_ANOMALY": 223.9858, "EPHEMERIS_TYPE": 0, "CLASSIFICATION_TYPE": "U", "NORAD_CAT_ID": 29815, "ELEMENT_SET_NO": 999, "REV_AT_EPOCH": 99844, "BSTAR": 0.00079594, "MEAN_MOTION_DOT": 5.251e-05, "MEAN_MOTION_DDOT": 0}, "tle": {"line1": "1 29815U 99025DH  25345.98451245  .00005251  00000+0  79594-3 0  9996", "line2": "2 29815  98.0565 354.5173 0183948 137.5735 223.9858 14.63706017998448"}}, "geometry": {"type": "Point", "coordinates": [-34.14254213066943, 73.75031032169382]}}, {"type": "Feature", "properties": {"norad_id": 29816, "name": "FENGYUN 1C DEB", "group": "fengyun-1c-debris", "lat": -80.99952823715384, "lon": -62.630406179449615, "alt_km": 752.8268463970498, "timestamp": "2025-12-12T09:49:09.002912+00:00", "meta": {"OBJECT_NAME": "FENGYUN 1C DEB", "OBJECT_ID": "1999-025DJ", "EPOCH": "2025-12-12T04:11:44.383200", "MEAN_MOTION": 14.44290106, "ECCENTRICITY": 0.023766, "INCLINATION": 98.9934, "RA_OF_ASC_NODE": 206.1396, "ARG_OF_PERICENTER": 178.7883, "MEAN_ANOMALY": 310.7336, "EPHEMERIS_TYPE": 0, "CLASSIFICATION_TYPE": "U", "NORAD_CAT_ID": 29816, "ELEMENT_SET_NO": 999, "REV_AT_EPOCH": 98179, "BSTAR": 0.0016968, "MEAN_MOTION_DOT": 8.197e-05, "MEAN_MOTION_DDOT": 0}, "tle": {"line1": "1 29816U 99025DJ  25346.17481925  .00008197  00000+0  16968-2 0  9994", "line2": "2 29816  98.9934 206.1396 0237660 178.7883 310.7336 14.44290106981791"}}, "geometry": {"type": "Point", "coordinates": [-62.630406179449615, -80.99952823715384]}}, {"type": "Feature", "properties": {"norad_id": 29817, "name": "FENGYUN 1C DEB", "group": "fengyun-1c-debris", "lat": -61.32349522313165, "lon": 139.64315482631187, "alt_km": 858.1752232868794, "timestamp": "2025-12-12T09:49:09.002923+00:00", "meta": {"OBJECT_NAME": "FENGYUN 1C DEB", "OBJECT_ID": "1999-025DK", "EPOCH": "2025-12-11T22:44:40.123104", "MEAN_MOTION": 14.1425077, "ECCENTRICITY": 0.0012319, "INCLINATION": 98.5575, "RA_OF_ASC_NODE": 335.1807, "ARG_OF_PERICENTER": 17.8318, "MEAN_ANOMALY": 36.702, "EPHEMERIS_TYPE": 0, "CLASSIFICATION_TYPE": "U", "NORAD_CAT_ID": 29817, "ELEMENT_SET_NO": 999, "REV_AT_EPOCH": 97384, "BSTAR": 0.00049059, "MEAN_MOTION_DOT": 8.95e-06, "MEAN_MOTION_DDOT": 0}, "tle": {"line1": "1 29817U 99025DK  25345.94768661  .00000895  00000+0  49059-3 0  9999", "line2": "2 29817  98.5575 335.1807 0012319  17.8318  36.7020 14.14250770973849"}}, "geometry": {"type": "Point", "coordinates": [139.64315482631187, -61.32349522313165]}}, {"type": "Feature", "properties": {"norad_id": 29818, "name": "FENGYUN 1C DEB", "group": "fengyun-1c-debris", "lat": -11.54362806098647, "lon": -134.4673353731463, "alt_km": 816.5141114875469, "timestamp": "2025-12-12T09:49:09.002934+00:00", "meta": {"OBJECT_NAME": "FENGYUN 1C DEB", "OBJECT_ID": "1999-025DL", "EPOCH": "2025-12-12T03:44:46.258944", "MEAN_MOTION": 14.04500393, "ECCENTRICITY": 0.0115317, "INCLINATION": 98.7212, "RA_OF_ASC_NODE": 223.493, "ARG_OF_PERICENTER": 27.494, "MEAN_ANOMALY": 123.0409, "EPHEMERIS_TYPE": 0, "CLASSIFICATION_TYPE": "U", "NORAD_CAT_ID": 29818, "ELEMENT_SET_NO": 999, "REV_AT_EPOCH": 96801, "BSTAR": 0.0002231, "MEAN_MOTION_DOT": 3.36e-06, "MEAN_MOTION_DDOT": 0}, "tle": {"line1": "1 29818U 99025DL  25346.15609096  .00000336  00000+0  22310-3 0  9991", "line2": "2 29818  98.7212 223.4930 0115317  27.4940 123.0409 14.04500393968018"}}, "geometry": {"type": "Point", "coordinates": [-134.4673353731463, -11.54362806098647]}}, {"type": "Feature", "properties": {"norad_id": 29819, "name": "FENGYUN 1C DEB", "group": "fengyun-1c-debris", "lat": 72.1776090941061, "lon": 178.72222934792723, "alt_km": 767.9767587212673, "timestamp": "2025-12-12T09:49:09.002944+00:00", "meta": {"OBJECT_NAME": "FENGYUN 1C DEB", "OBJECT_ID": "1999-025DM", "EPOCH": "2025-12-12T04:28:12.177984", "MEAN_MOTION": 14.02194806, "ECCENTRICITY": 0.0191486, "INCLINATION": 98.732, "RA_OF_ASC_NODE": 329.9508, "ARG_OF_PERICENTER": 68.6183, "MEAN_ANOMALY": 351.1724, "EPHEMERIS_TYPE": 0, "CLASSIFICATION_TYPE": "U", "NORAD_CAT_ID": 29819, "ELEMENT_SET_NO": 999, "REV_AT_EPOCH": 96612, "BSTAR": 0.00061811, "MEAN_MOTION_DOT": 1.071e-05, "MEAN_MOTION_DDOT": 0}, "tle": {"line1": "1 29819U 99025DM  25346.18625206  .00001071  00000+0  61811-3 0  9992", "line2": "2 29819  98.7320 329.9508 0191486  68.6183 351.1724 14.02194806966129"}}, "geometry": {"type": "Point", "coordinates": [178.72222934792723, 72.1776090941061]}}]}